1  1574U 65070E   20323.92423809 -.00000085  00000-0  52531-4 0  9996
2  1574  56.0558  30.1683 0066101  73.7289  97.1290 12.37007069494908
1  1574U 65070E   20324.89414203 -.00000089 +00000-0 +26804-4 0  9999
2  1574 056.0558 027.6137 0066115 074.9688 096.3652 12.37007079494582
1  1574U 65070E   20325.61722248 -.00000086 +00000-0 +45156-4 0  9999
2  1574 056.0558 025.7092 0066113 075.8836 076.4413 12.37007100494673
1  1574U 65070E   20326.00103983 -.00000089  00000-0  27358-4 0  9999
2  1574  56.0558  24.6983 0066115  76.3714 345.6832 12.37007092495164
1  1574U 65070E   20326.23855817 -.00000091 +00000-0 +59216-5 0  9996
2  1574 056.0558 024.0727 0066117 076.6763 323.4134 12.37007086494759
1  1574U 65070E   20326.91436655 -.00000091 +00000-0 +12770-4 0  9999
2  1574 056.0557 022.2927 0066124 077.5354 092.9698 12.37007086494836
1  1574U 65070E   20327.55504799 -.00000090 +00000-0 +18788-4 0  9999
2  1574 056.0556 020.6052 0066128 078.3530 066.0935 12.37007088494912
1  1574U 65070E   20327.88417399 -.00000092 +00000-0 +10938-5 0  9996
2  1574 056.0555 019.7383 0066131 078.7718 091.7800 12.37007093494959
1  1574U 65070E   20328.17699771 -.00000091  00000-0  11986-4 0  9997
2  1574  56.0555  18.9670 0066135  79.1490 315.7978 12.37007109495432
1  1574U 65070E   20328.52425080 -.00000091 +00000-0 +93515-5 0  9995
2  1574 056.0555 018.0524 0066141 079.5950 062.2047 12.37007098495037
1  1574U 65070E   20329.15176900 -.00000096 +00000-0 -28060-4 0  9997
2  1574 056.0554 016.3995 0066142 080.3922 336.7124 12.37007077495110
1  1574U 65070E   20329.90475054 -.00000092 +00000-0 +95531-6 0  9996
2  1574 056.0554 014.4162 0066144 081.3483 089.9429 12.37007080495209
1  1574U 65070E   20330.19861648 -.00000091  00000-0  85299-5 0  9995
2  1574  56.0554  13.6421 0066146  81.7257 318.6031 12.37007080495686
1  1574U 65070E   20330.54607708 -.00000087 +00000-0 +39867-4 0  9993
2  1574 056.0553 012.7270 0066145 082.1637 065.9422 12.37007083495288
1  1574U 65070E   20330.87448885 -.00000088 +00000-0 +29664-4 0  9993
2  1574 056.0551 011.8617 0066131 082.5762 088.4533 12.37007096495321
1  1574U 65070E   20331.60105176 -.00000080 +00000-0 +92824-4 0  9998
2  1574 056.0553 009.9482 0066148 083.5044 084.0287 12.37007114495412
1  1574U 65070E   20331.84425883 -.00000080 +00000-0 +97436-4 0  9998
2  1574 056.0553 009.3076 0066149 083.8137 087.0953 12.37007135495441
1  1574U 65070E   20332.48426966 -.00000079  00000-0  10504-3 0  9990
2  1574  56.0552   7.6218 0066153  84.6310  57.2321 12.37007143495960
1  1574U 65070E   20332.56852425 -.00000078 +00000-0 +10978-3 0  9996
2  1574 056.0552 007.3999 0066154 084.7383 072.4403 12.37007151495537
1  1574U 65070E   20332.81406818 -.00000081 +00000-0 +89992-4 0  9992
2  1574 056.0552 006.7531 0066154 085.0488 085.9153 12.37007151495566
1  1574U 65070E   20333.54024536 -.00000078 +00000-0 +11026-3 0  9994
2  1574 056.0552 004.8404 0066154 085.9738 079.7759 12.37007165495659
1  1574U 65070E   20334.50636100 -.00000083  00000-0  72402-4 0  9999
2  1574  56.0552   2.2957 0066151  87.2020  62.1487 12.37007137496216
1  1574U 65070E   20334.83440209 -.00000090 +00000-0 +14749-4 0  9996
2  1574 056.0550 001.4315 0066137 087.6161 083.0074 12.37007125495813
1  1574U 65070E   20335.47503962 -.00000093 +00000-0 -46616-5 0  9996
2  1574 056.0549 359.7440 0066141 088.4348 055.9344 12.37007101495890
1  1574U 65070E   20335.80418699 -.00000090 +00000-0 +13791-4 0  9998
2  1574 056.0549 358.8771 0066140 088.8519 081.7177 12.37007122495939
1  1574U 65070E   20336.52863247 -.00000092  00000-0 -12720-5 0  9996
2  1574  56.0548 356.9688 0066145  89.7781  67.8631 12.37007111496467
1 01574U 65070E   20336.77417715 -.00000089  00000-0  22858-4 0  9995
2 01574  56.0549 356.3221 0066145  90.0928  81.3375 12.37007141496057
1 01574U 65070E   20337.30447650 -.00000092  00000-0  46034-5 0  9993
2 01574  56.0549 354.9255 0066157  90.7763 282.8944 12.37007189496125
1 01574U 65070E   20337.82453937 -.00000086  00000-0  48233-4 0  9990
2 01574  56.0549 353.5557 0066150  91.4218  78.8901 12.37007223496182
1 01574U 65070E   20338.20630133 -.00000085  00000-0  52056-4 0  9995
2 01574  56.0549 352.5501 0066149  91.9071 338.9791 12.37007234496235
1 01574U 65070E   20338.35506789 -.00000086  00000-0  51301-4 0  9993
2 01574  56.0548 352.1582 0066150  92.1006 281.4723 12.37007220496256
1  1574U 65070E   20338.79429992 -.00000088  00000-0  35534-4 0  9993
2  1574  56.0548 351.0013 0066148  92.6587  77.4911 12.37007214496748
1 01574U 65070E   20339.76422133 -.00000089  00000-0  26641-4 0  9991
2 01574  56.0547 348.4464 0066145  93.8966  76.8078 12.37007216496422
1  1574U 65070E   20340.29468020 -.00000090 +00000-0 +16452-4 0  9997
2  1574 056.0546 347.0491 0066143 094.5760 279.0791 12.37007204496497
1 01574U 65070E   20340.73422388 -.00000091  00000-0  96581-5 0  9996
2 01574  56.0545 345.8913 0066142  95.1343  76.4861 12.37007208496541
1  1574U 65070E   20341.02591179 -.00000092  00000-0  50563-6 0  9996
2  1574  56.0546 345.1229 0066143  95.5088 295.4473 12.37007200497024
1 01574U 65070E   20341.26419670 -.00000091  00000-0  80660-5 0  9996
2 01574  56.0545 344.4952 0066142  95.8130 276.5929 12.37007197496613
1  1574U 65070E   20341.36762772 -.00000092 +00000-0 +35547-5 0  9996
2  1574 056.0545 344.2228 0066144 095.9466 017.1969 12.37007182496620
1 01574U 65070E   20341.78490762 -.00000092  00000-0  55402-5 0  9991
2 01574  56.0544 343.1235 0066124  96.4776  75.4564 12.37007184496678
1  1574U 65070E   20341.78490762 -.00000092 +00000-0 +55402-5 0  9991
2  1574 056.0544 343.1235 0066124 096.4776 075.4564 12.37007184497118
1 01574U 65070E   20342.31526023 -.00000084  00000-0  59816-4 0  9994
2 01574  56.0544 341.7265 0066138  97.1493 277.2620 12.37007202496748
1  1574U 65070E   20342.42606038 -.00000084 +00000-0 +66491-4 0  9998
2  1574 056.0544 341.4347 0066138 097.2901 050.6850 12.37007205496753
1  1574U 65070E   20343.22344199 -.00000081 +00000-0 +86166-4 0  9992
2  1574 056.0544 339.3342 0066130 098.3033 001.6408 12.37007216496852
1 01574U 65070E   20343.39610241 -.00000079  00000-0  10113-3 0  9999
2 01574  56.0544 338.8795 0066130  98.5225  50.5445 12.37007225496879
1 01574U 65070E   20344.35836240 -.00000077  00000-0  12002-3 0  9992
2 01574  56.0544 336.3447 0066123  99.7533  15.7405 12.37007265496999
1  1574U 65070E   20344.35836240 -.00000077  00000-0  12002-3 0  9992
2  1574  56.0544 336.3447 0066123  99.7533  15.7405 12.37007265497439
1 01574U 65070E   20345.16347091 -.00000082  00000-0  76600-4 0  9994
2 01574  56.0544 334.2239 0066120 100.7836   1.0995 12.37007277497098
1  1574U 65070E   20345.33336826 -.00000081 +00000-0 +85339-4 0  9995
2  1574 056.0544 333.7764 0066120 100.9960 037.7018 12.37007272497115
1 01574U 65070E   20345.74437131 -.00000083  00000-0  69759-4 0  9991
2 01574  56.0544 332.6938 0066115 101.5181  68.0096 12.37007275497163
1 01574U 65070E   20346.29404057 -.00000085  00000-0  52150-4 0  9992
2 01574  56.0544 331.2458 0066111 102.2203 355.8317 12.37007252497230
1  1574U 65070E   20346.47290550 -.00000087  00000-0  41947-4 0  9997
2  1574  56.0544 330.7747 0066111 102.4430  72.3700 12.37007248497691
1 01574U 65070E   20346.71445141 -.00000088  00000-0  29860-4 0  9993
2 01574  56.0544 330.1385 0066107 102.7429  68.0463 12.37007246497280
1 01574U 65070E   20347.26281972 -.00000090  00000-0  17327-4 0  9992
2 01574  56.0544 328.6940 0066103 103.4430 350.0755 12.37007243497358
1  1574U 65070E   20347.68426652 -.00000093 +00000-0 -85031-5 0  9996
2  1574 056.0544 327.5839 0066098 103.9757 066.8950 12.37007251497407
1 01574U 65070E   20348.23177759 -.00000090  00000-0  20138-4 0  9991
2 01574  56.0542 326.1419 0066081 104.6818 345.0991 12.37007238497471
1 01574U 65070E   20348.65434374 -.00000091  00000-0  71739-5 0  9991
2 01574  56.0542 325.0289 0066075 105.2181  66.9010 12.37007229497524
1  1574U 65070E   20348.65434374 -.00000091  00000-0  71739-5 0  9991
2  1574  56.0542 325.0289 0066075 105.2181  66.9010 12.37007229497962
1 01574U 65070E   20349.28756054 -.00000096  00000-0 -32084-4 0  9998
2 01574  56.0544 323.3608 0066078 106.0324   6.7779 12.37007279497601
1 01574U 65070E   20350.25410435 -.00000095  00000-0 -20449-4 0  9998
2 01574  56.0542 320.8149 0066062 107.2603 351.0589 12.37007265497720
1  1574U 65070E   20350.67409058 -.00000095  00000-0 -22238-4 0  9991
2  1574  56.0542 319.7086 0066056 107.7938  61.3713 12.37007263498219
1 01574U 65070E   20350.88605723 -.00000091  00000-0  68068-5 0  9998
2 01574  56.0542 319.1503 0066052 108.0655 285.3138 12.37007278497802
1 01574U 65070E   20351.40098993 -.00000092  00000-0  26665-5 0  9990
2 01574  56.0542 317.7939 0066045 108.7268  58.4415 12.37007271497864
1 01574U 65070E   20352.61406514 -.00000091  00000-0  96408-5 0  9997
2 01574  56.0542 314.5986 0066028 110.2719  60.5897 12.37007271498017
1 01574U 65070E   20352.90278868 -.00000088  00000-0  32429-4 0  9996
2 01574  56.0542 313.8381 0066023 110.6428 266.3497 12.37007280498050
1 01574U 65070E   20353.14458549 -.00000088  00000-0  35284-4 0  9991
2 01574  56.0542 313.2012 0066020 110.9532 263.1331 12.37007277498082
1  1574U 65070E   20353.14458549 -.00000088  00000-0  35284-4 0  9991
2  1574  56.0542 313.2012 0066020 110.9532 263.1331 12.37007277498521
1 01574U 65070E   20353.87466785 -.00000078  00000-0  11134-3 0  9998
2 01574  56.0542 311.2781 0066006 111.8801 274.3880 12.37007314498171
1 01574U 65070E   20354.30640354 -.00000077  00000-0  12020-3 0  9997
2 01574  56.0542 310.1409 0066003 112.4293  37.0232 12.37007306498227
1 01574U 65070E   20354.84570630 -.00000073  00000-0  14535-3 0  9994
2 01574  56.0542 308.7203 0065992 113.1168 278.6821 12.37007327498294
1  1574U 65070E   20355.16502431 -.00000076  00000-0  12825-3 0  9997
2  1574  56.0542 307.8792 0065989 113.5228 260.6913 12.37007311498773
1 01574U 65070E   20355.60426442 -.00000075  00000-0  13176-3 0  9992
2 01574  56.0542 306.7223 0065981 114.0796  56.7478 12.37007336498382
